[{"OBJECT_NAME":"STARLINK-30246","OBJECT_ID":"2023-119P","EPOCH":"2026-03-09T22:00:01.999584","MEAN_MOTION":15.14425651,"ECCENTRICITY":8.476e-5,"INCLINATION":43.0007,"RA_OF_ASC_NODE":79.6807,"ARG_OF_PERICENTER":286.3854,"MEAN_ANOMALY":231.2681,"EPHEMERIS_TYPE":0,"CLASSIFICATION_TYPE":"U","NORAD_CAT_ID":57615,"ELEMENT_SET_NO":999,"REV_AT_EPOCH":557,"BSTAR":0.063371343,"MEAN_MOTION_DOT":0.01283812,"MEAN_MOTION_DDOT":0},{"OBJECT_NAME":"STARLINK-36554","OBJECT_ID":"2026-012K","EPOCH":"2026-03-08T17:06:15.871680","MEAN_MOTION":15.27591469,"ECCENTRICITY":6.955e-5,"INCLINATION":42.9934,"RA_OF_ASC_NODE":319.8184,"ARG_OF_PERICENTER":339.2059,"MEAN_ANOMALY":20.8765,"EPHEMERIS_TYPE":0,"CLASSIFICATION_TYPE":"U","NORAD_CAT_ID":67502,"ELEMENT_SET_NO":999,"REV_AT_EPOCH":761,"BSTAR":0.0011969118,"MEAN_MOTION_DOT":0.00032833,"MEAN_MOTION_DDOT":0}]
